OBJECT_NAME,OBJECT_ID,EPOCH,MEAN_MOTION,ECCENTRICITY,INCLINATION,RA_OF_ASC_NODE,ARG_OF_PERICENTER,MEAN_ANOMALY,EPHEMERIS_TYPE,CLASSIFICATION_TYPE,NORAD_CAT_ID,ELEMENT_SET_NO,REV_AT_EPOCH,BSTAR,MEAN_MOTION_DOT,MEAN_MOTION_DDOT
SATELIOT_4,2024-149BX,2026-06-04T03:12:27.077472,14.96616852,.00032201,97.6729,229.8647,86.8744,273.2846,0,U,60537,999,9802,.20460046E-3,.2274E-4,0
PICO-02A021,2024-149BY,2026-06-03T10:53:09.754368,15.03106045,.00060113,97.6731,233.4072,69.7180,290.4690,0,U,60538,999,9767,.40227106E-3,.537E-4,0
ICEYE-X43,2024-149BZ,2026-06-03T05:11:57.647616,14.99887483,.0007144,97.6759,231.3751,126.0876,234.1010,0,U,60539,999,9802,.36396E-3,.4456E-4,0
HAWK-10A,2024-149CA,2026-06-04T15:59:00.036960,14.96470314,.0004584,97.6885,231.7928,108.7410,251.4309,0,U,60540,999,9811,.16078E-3,.1768E-4,0
UMBRA-09,2024-149CB,2026-06-03T05:21:18.737856,15.17593985,.0000429,97.6966,241.1946,102.7819,257.3461,0,U,60541,999,9860,.86864E-3,.17416E-3,0
QPS-SAR-8 (AMATERU-IV),2024-149CC,2026-06-04T02:06:16.639776,15.04002199,.00043941,97.6671,234.3485,138.5123,221.6437,0,U,60542,999,9830,.47212394E-3,.6465E-4,0
ARCTIC WEATHER SATELLITE,2024-149CD,2026-06-04T02:58:13.167264,14.89809031,.00032611,97.6803,225.9623,129.1827,230.9681,0,U,60543,999,9735,.11684818E-3,.1068E-4,0
CAPELLA-15 (ACADIA-5),2024-149CE,2026-06-03T18:41:38.294016,14.92424531,.0004894,97.6778,228.0181,117.0158,243.1561,0,U,60544,999,9785,.69564279E-3,.7077E-4,0
HAWK-10B,2024-149CF,2026-06-04T15:58:46.996608,14.96471383,.0006311,97.6805,231.1606,127.6470,232.5325,0,U,60545,999,9811,.1684E-3,.1855E-4,0
ICEYE-X39,2024-149CG,2026-06-04T16:01:59.638368,14.99819343,.0003999,97.6765,232.8634,149.7721,210.3734,0,U,60546,999,9824,.33214E-3,.4053E-4,0
UMBRA-10,2024-149CH,2026-06-03T05:20:40.384032,15.17595745,.000152,97.6976,241.2208,75.1748,284.9653,0,U,60547,999,9861,.89226E-3,.17894E-3,0
ICEYE-X33,2024-149CJ,2026-06-03T07:15:03.638880,15.00904331,.00010723,97.7229,233.5224,126.2639,233.8684,0,U,60548,999,9812,.3441655E-3,.4323E-4,0
ICEYE-X40,2024-149CK,2026-06-03T04:58:52.044384,14.97891594,.0005768,97.6796,230.9286,120.9141,239.2649,0,U,60549,999,9798,.14034E-3,.1595E-4,0
SATELIOT_1,2024-149CL,2026-06-04T16:03:56.908224,14.98011841,.0007507,97.6738,231.7766,115.2227,244.9775,0,U,60550,999,9819,.21708E-3,.2507E-4,0
BRO-14,2024-149CM,2026-06-03T03:36:59.097600,14.96143157,.00078602,97.6873,230.1804,136.2798,223.9047,0,U,60551,999,9789,.12138658E-3,.131E-4,0
SATELIOT_3,2024-149CN,2026-06-03T18:38:32.192736,14.98007756,.00066151,97.6834,231.6772,117.5516,242.6379,0,U,60552,999,9807,.21602671E-3,.2494E-4,0
BRO-15,2024-149CP,2026-06-04T03:15:56.716704,14.96102801,.00091994,97.6801,230.7619,126.3544,233.8528,0,U,60553,999,9805,.88866298E-4,.943E-5,0
UM5-RIBAT,2024-149CQ,2026-06-04T16:09:11.233152,15.01003103,.0003929,97.6639,233.6423,81.2266,278.9403,0,U,60554,999,9831,.29353E-3,.3688E-4,0
UM5-EOSAT,2024-149CR,2026-06-04T01:02:19.764384,15.01423436,.0008409,97.6670,233.9388,153.3644,206.8013,0,U,60555,999,9824,.34277719E-3,.4368E-4,0
LASARSAT,2024-247Q,2026-06-03T22:10:16.072896,15.45494859,.00080478,44.9754,336.7002,258.6055,101.3931,0,U,62391,999,8126,.75515127E-3,.36882E-3,0
CROCUBE,2024-247T,2026-05-30T23:58:07.998816,15.46917883,.00073418,44.9730,356.3242,240.2660,119.7500,0,U,62394,999,8068,.86080924E-3,.44257E-3,0
TEVEL2-4,2025-052D,2026-06-02T05:56:32.581248,15.34050425,.00040908,97.3927,49.6197,133.0862,227.0724,0,U,63213,999,6782,.60334383E-3,.19833E-3,0
TEVEL2-5,2025-052E,2026-06-04T16:19:21.885024,15.33985737,.000407,97.3911,52.0060,127.8276,232.3335,0,U,63214,999,6819,.62137E-3,.20387E-3,0
TEVEL2-6,2025-052F,2026-06-03T15:33:41.668416,15.33906822,.0004181,97.3918,50.9581,130.1242,230.0368,0,U,63215,999,6803,.61519E-3,.20133E-3,0
TEVEL2-1,2025-052H,2026-06-02T16:39:16.232832,15.33355434,.0003899,97.3886,49.6443,141.0246,219.1278,0,U,63217,999,6787,.61840095E-3,.19888E-3,0
TEVEL2-3,2025-052J,2026-06-03T05:04:02.160768,15.33427572,.0003877,97.3892,50.1814,141.5958,218.5561,0,U,63218,999,6795,.61001E-3,.19661E-3,0
TEVEL2-2,2025-052K,2026-06-03T14:35:25.631520,15.33398099,.00038129,97.3889,50.5598,141.3409,218.8107,0,U,63219,999,6801,.63027532E-3,.203E-3,0
TEVEL2-9,2025-052AD,2026-06-04T16:17:23.004672,15.31497239,.0006594,97.3945,51.0324,167.3372,192.8036,0,U,63237,999,6811,.56461E-3,.17126E-3,0
TEVEL2-7,2025-052AE,2026-06-03T14:33:06.588864,15.31176236,.00064176,97.3955,49.8841,171.2563,188.8791,0,U,63238,999,6794,.58397265E-3,.17541E-3,0
TEVEL2-8,2025-052AF,2026-06-03T22:35:19.148640,15.31169698,.0006473,97.3952,50.1954,170.8239,189.3121,0,U,63239,999,6799,.57066E-3,.17135E-3,0
